#aV2023 12 13  0  0  0.00000000     288 DD+AD WGS84 FIT  NGA
## 2292 259200.00000000   300.00000000 60291 0.0000000000000
+   32     1  2  3  4  5  6  7  8  9 10 11 12 13 14 15 16 17
+         18 19 20 21 22 23 24 25 26 27 28 29 30 31 32  0  0
+          0  0  0  0  0  0  0  0  0  0  0  0  0  0  0  0  0
+          0  0  0  0  0  0  0  0  0  0  0  0  0  0  0  0  0
+          0  0  0  0  0  0  0  0  0  0  0  0  0  0  0  0  0
++         2  2  2  2  2  2  2  2  2  2  2  2  2  2  2  2  2
++         2  2  2  2  2  2  2  2  2  2  2  2  2  2  2  0  0
++         0  0  0  0  0  0  0  0  0  0  0  0  0  0  0  0  0
++         0  0  0  0  0  0  0  0  0  0  0  0  0  0  0  0  0
++         0  0  0  0  0  0  0  0  0  0  0  0  0  0  0  0  0
%c cc cc ccc ccc cccc cccc cccc cccc ccccc ccccc ccccc ccccc
%c cc cc ccc ccc cccc cccc cccc cccc ccccc ccccc ccccc ccccc
%f  0.0000000  0.000000000  0.00000000000  0.000000000000000
%f  0.0000000  0.000000000  0.00000000000  0.000000000000000
%i    0    0    0    0      0      0      0      0         0
%i    0    0    0    0      0      0      0      0         0
/*      NGA, ST. LOUIS,MO.                                  
/*   EPHEMERIS COMPUTED FROM 2 DAYS OF DATA                 
/*   EPOCHA v8 SMOOTHER                                     
/*   G2139 IERS2010 SATIGS SATAPC                           
*  2023 12 13 20 25  0.00000000
P  1   1795.191654 -15811.282480 -21552.312225    163.932998                    
V  1  25017.802672  -8874.100044   9062.808934      0.005361                    
P  2   8596.668580 -17665.836521 -17269.314653   -515.986800                    
V  2  21355.480177  -8713.163980  19206.168951      0.053179                    
P  3  -6096.199311 -19419.801491 -17264.583337     52.365179                    
V  3  17720.661535  12326.127777 -20186.818750      0.275875                    
P  4    600.853430 -25889.452319   5581.887104    238.650565                    
V  4   3931.742970  -6520.251442 -30843.134113      0.101096                    
P  5  -6311.482288  13739.638599  21654.251283   -154.004728                    
V  5 -22959.856949 -15851.231080   3427.634692     -0.014482                    
P  6 -25314.973057   5905.548633  -5646.119865    478.907572                    
V  6   6082.889705  -4274.974030 -31245.434420     -0.115275                    
P  7 -15248.659868  -9443.069108  20210.427075    -11.085141                    
V  7  22407.934964  -9994.343293  12064.358015     -0.096201                    
P  8   5021.110183 -25645.924239   3155.284007   -156.812510                    
V  8   2845.644551   4489.855978  31577.655168     -0.020010                    
P  9  -8325.178900 -20156.134401  15034.963289     25.833245                    
V  9   4378.907859 -18898.929781 -22837.085140      0.117061                    
P 10  22858.338539   9352.996741 -10006.802480    -65.181750                    
V 10   9088.962611   9254.969240  28526.001623     -0.015326                    
P 11 -23029.338452  12014.706103   5437.498387   -499.496215                    
V 11  -7358.953369   -205.608529 -30894.628867     -0.151955                    
P 12   3912.932555  19859.728705 -17516.672018   -457.101934                    
V 12 -17124.197455 -13345.118007 -19193.173506     -0.039647                    
P 13 -13323.652017  20130.867958  10623.445959    605.306641                    
V 13   1490.055040 -13981.299399  28042.507445      0.039305                    
P 14 -22639.523826 -12221.485678  -6939.556549    269.970527                    
V 14  -4930.269953  -7873.825702  29676.140504      0.105360                    
P 15  -1909.995817  26157.521941   2878.517414    106.620462                    
V 15  -3900.096632  -4245.624912  31002.442328      0.038165                    
P 16  13150.058170  -8027.565257  21359.371608   -404.743408                    
V 16  20190.789465  19146.048677  -4709.622011      0.071750                    
P 17 -13537.840348  -6744.642938 -21385.635956    722.038610                    
V 17   6065.815639 -27520.232833   4879.257278     -0.005976                    
P 18  16230.868435   7981.846251  19526.648258   -505.399267                    
V 18 -22674.945390   9765.820664  14687.096295     -0.100914                    
P 19 -15745.832373   2785.798656 -21336.855598    412.040520                    
V 19   5730.053678 -26076.433749  -8042.893476      0.052488                    
P 20 -17741.235010   5787.791480  18885.391846    396.812221                    
V 20 -20387.388148 -12685.721856 -15483.919047     -0.019130                    
P 21  11647.400723 -17669.153185 -14931.187348    141.630125                    
V 21  19283.629654  -6763.713867  23227.873676     -0.011065                    
P 22 -21347.245727  -7289.360399 -13347.460782     66.633707                    
V 22 -11269.995952 -13989.737574  25135.889261     -0.067831                    
P 23  20660.925809  16754.088846   1858.633225    115.535529                    
V 23  -3135.186429    340.536089  31874.552860      0.068874                    
P 24  -7274.828215  18561.787917 -17750.092126   -392.649876                    
V 24 -20559.224222   8139.735296  17755.322727     -0.081417                    
P 25  15451.160943  19888.059203  -9188.594282    481.350241                    
V 25 -10409.820412  -4702.129562 -28447.372513      0.014873                    
P 26  20111.707092  -1992.444847  17275.282849    209.486486                    
V 26  17331.770927  13951.747674 -18053.295114     -0.030654                    
P 27  12626.707257 -17721.208399  14669.589141    -82.561060                    
V 27   -232.526656  19389.943081  23626.704443     -0.047833                    
P 28  24804.236317  -4703.698522  -8264.675414    -69.306461                    
V 28  -8502.335453   6633.260842 -29383.698947     -0.099211                    
P 29   5695.667007  21201.277871  14833.352275   -609.787204                    
V 29  -5841.726696  18098.081358 -23649.593726      0.002987                    
P 30 -22887.684108  -1751.408007  13706.663320   -457.801716                    
V 30  14985.239574  -8762.917706  23849.740357      0.043204                    
P 31  25028.126896  -9541.857417     70.775062   -226.568229                    
V 31   1266.718501   2396.966643 -31330.856612     -0.003065                    
P 32  14949.915987   2337.332469 -21641.758375   -595.974837                    
V 32  -3545.809066  27703.405358    332.606080     -0.037105                    
EOF
